#dP2023  2 15 18  0  0.00000000      96 __u+U ITR00 EXT  IAC
## 2249 324000.00000000   900.00000000 59990 0.7500000000000
+  120   C06C07C08C09C10C11C12C13C14C16C19C20C21C22C23C24C25
+        C26C27C28C29C30C32C33C34C35C36C37C38C39C40C41C42C43
+        C44C45C46E01E02E03E04E05E07E08E09E10E11E12E13E14E15
+        E18E19E21E24E25E26E27E30E31E33E34E36G01G02G03G04G05
+        G06G07G08G09G10G11G12G13G14G15G16G17G18G19G20G21G22
+        G23G24G25G26G27G28G29G30G31G32J02J03J04R01R02R03R04
+        R05R07R08R09R11R12R13R14R15R16R17R18R19R20R21R22R24
+        R25  0  0  0  0  0  0  0  0  0  0  0  0  0  0  0  0
++        10 10 10 10  7  9  8  8  9 10  9  9  7  8  8  9 10
++         7  8  8  9 10  9 10  8  8  9 10 10 11 10  8  9  9
++         9  9  8  7  7  9  7  7  7  7  8  7  8  7  6  7  7
++         7  8  7  7  8  7  5  7  6  7  6  7  8  7  7 11  7
++         5  5  8  7  6  5  6  7  6  7  6  6  7  7  6  8  7
++         7  7  6  6  7  8  7  6  6  8  8 10 10  7  7  8  7
++         8  7  5  6  8  9  7  7  9  8  9  8  9 10  7  7  9
++         7  0  0  0  0  0  0  0  0  0  0  0  0  0  0  0  0
%c M  cc GPS ccc cccc cccc cccc cccc ccccc ccccc ccccc ccccc
%c cc cc ccc ccc cccc cccc cccc cccc ccccc ccccc ccccc ccccc
%f  0.0000000  0.000000000  0.00000000000  0.000000000000000
%f  0.0000000  0.000000000  0.00000000000  0.000000000000000
%i    0    0    0    0      0      0      0      0         0
%i    0    0    0    0      0      0      0      0         0
/* IAC                                ULTRA-RAPID PREDICTION
/* S/V CLOCKS ARE ALIGNED TO GNSS TIME                      
/* G:C1WC2W R:C1PC2P E:C1XC5X C:C2IC6I J:C1CC2S             
/* PCV:IGS20_2247 OL/AL:FES2004  NONE     YN ORB:CoN CLK:CoN
*  2023 02 16  7 15  0.00000000
PC06 -10537.115210  40310.421315  -5406.792321   -191.395397
PC07  -4749.348430  28105.326978  31141.243018    106.673234
PC08 -18352.459789  25159.819895 -28504.440158    525.733689
PC09  -5544.824182  41321.453791   4233.786802    695.632983
PC10   2852.182485  30701.325840  29229.901278     10.233579
PC11  15156.755413  -4589.611576 -22906.655619   -117.790532
PC12  12633.228419  15840.867219 -19148.902100    455.611011
PC13 -12098.667928  26194.764086 -30680.549725    208.987741
PC14  23586.254349   1289.371327  14922.827254    486.023205
PC16 -11096.616023  39880.156784  -6903.198270    161.075166
PC19 -17541.363631   6445.750044 -20689.499647   -894.571926
PC20 -25513.901053  -7591.845880  -8314.823036    721.379451
PC21  18670.724176  18154.797876 -10035.290177   -910.767985
PC22    952.998044  17482.637202 -21731.490037   -630.327576
PC23  10767.388261 -20048.075787 -16151.661410   -878.064081
PC24  22621.712437    141.107494  16301.145616   -404.316505
PC25  23182.428013 -15485.332923   -930.734653     72.889918
PC26   9751.469938  13081.425467  22619.353496    -79.471070
PC27  -9165.449371 -22937.774956  12983.087429     97.544437
PC28   2007.456317 -27654.591380  -3165.469071     71.059300
PC29 -12500.749332  16170.963661  18991.177334     81.775487
PC30 -15817.766172  -5490.362655  22322.497054      1.141945
PC32 -18710.807393 -18048.612697  10152.395309   -620.730954
PC33  17616.340054  -6507.836448  20654.897973   -872.954224
PC34  15959.288955   3997.021830 -22547.400785    107.256093
PC35  -1817.372844  27487.596586   4305.406277    679.673472
PC36 -23810.657047  14562.731807    267.516642   -621.890459
PC37  -8086.827470 -14147.423281 -22648.993637   -820.015754
PC38 -25089.281361  26513.685086 -21177.643070     59.139608
PC39 -13144.329831  37283.684802 -14297.963640     -1.829681
PC40  -8005.778707  22647.957658  34665.629302    -15.237117
PC41   -276.931876 -17299.208245  21951.302416   -618.033721
PC42  25638.409336   8428.155106   7187.937514   -834.134471
PC43  12963.880434 -15387.291956 -19356.583552      7.434747
PC44  10008.423633  22667.251123 -12811.350536     16.981676
PC45 -10460.685864  19955.019802  16474.285158    -61.070406
PC46 -23414.478658   1395.690189 -15159.834404    -33.764528
PE01 -18106.526124 -13343.729624 -19254.673447   -600.537055
PE02  18493.222727  13158.032213  18979.556750     21.099731
PE03  17359.973028  23501.553071   4764.104086   -650.523968
PE04 -20505.249612  -7556.567261 -19959.854287    -59.377639
PE05   3910.532095  25991.573255 -13606.549273    -94.872934
PE07  11711.101915 -13159.393263  23792.965221    -23.300394
PE08  20447.713520   7728.657744  19962.625754    -36.902978
PE09 -11681.931926  12942.383860 -23918.360712   -837.900719
PE10 -20231.594898  13223.058439  17084.936348   -512.762800
PE11 -18473.663672  21703.791913   7948.509523    905.053613
PE12 -18825.475526   3336.590735  22592.480119   -424.142893
PE13  18700.037162 -21201.576781  -8787.770744     -0.296297
PE14 -13772.553869 -18214.566332   6625.058371    143.623230
PE15  18660.184073  -3077.435682 -22763.830489     -1.475640
PE18  21447.194442  18932.576800 -15235.327012   -385.019982
PE19 -15946.921145 -24842.015760  -2224.693163  -3222.423406
PE21   1851.623278 -16698.573733 -24376.511187   -512.454550
PE24 -23094.954918  10354.682820  15353.778808  -1116.967549
PE25  -2259.527492  16677.554529  24349.483722   -599.494719
PE26   7156.104628 -26592.462955  10868.298038     19.867047
PE27  22375.811627 -10866.039832 -16035.341112   -513.521024
PE30  29441.718995   1846.600632   2281.431693  -1246.596461
PE31 -29530.457996  -1309.953998  -1669.987795   -516.176942
PE33  -7596.370523 -16750.275722  23203.575132   -451.852534
PE34   7754.086203  16589.886855 -23256.379537    -30.361816
PE36  -7792.178418  26680.392015 -10153.421747    -13.180127
PG01 -13917.434112  22343.766819  -1809.228624    211.989281
PG02   9838.504279 -24468.583415   4697.790435   -620.513371
PG03 -11966.784539  12792.947632 -20051.695803   -362.507992
PG04  -3726.980142  20138.359021 -16843.523071    -26.438503
PG05  24391.413450  -5693.810254   8843.538846   -116.103173
PG06  12484.888120   7540.951418 -22129.116446    572.935271
PG07  -2863.474526  22368.822192  14061.373351    240.090620
PG08 -12003.026335   9590.346871  21577.038643   -108.727139
PG09   6187.603370  24458.566012  -8301.300237   -217.311635
PG10 -18941.915199 -11383.012996  15134.907787    -24.917846
PG11  19204.129236  -5617.911209 -17439.956691   -105.576223
PG12  14425.296658 -11540.678523 -19325.769150   -340.944981
PG13  15190.331644  -1255.900730  21593.322835    476.883711
PG14  16211.024183  13329.118986  16359.088225    -25.959296
PG15  10871.277854 -11525.721745  20843.672484     13.883444
PG16 -25822.290866    839.261993   6839.064601   -519.853969
PG17  12856.512306  22647.092297  -4508.372917    700.346102
PG18    679.488163 -20736.792373  16502.004813   -142.732909
PG19  16278.459450  15510.229629 -14578.700664    278.365318
PG20  26316.685383   -973.045542  -2400.722986    450.402177
PG21 -16805.806831  18411.367579   8436.401938    154.020473
PG22 -16895.198494 -12369.871692 -16002.784072    428.036748
PG23  -7335.360146 -14573.515172  20991.403253      6.367023
PG24  14476.667692 -21725.045084   3088.107410    -75.818253
PG25   3458.304462 -15270.887777 -21747.511310    420.512546
PG26 -25415.139334  -4962.225073  -6777.244748    241.525117
PG27 -16870.662162  -2720.726324  20207.778778    101.214593
PG28 -11954.855319  -9536.210326 -21748.356323     14.390808
PG29  -1789.146594 -24098.834547 -10979.027362   -586.383384
PG30   7930.976483  15094.123187  20400.983498   -530.139629
PG31 -14586.596004  -5855.815192 -21617.168631   -209.378343
PG32 -15825.145032 -20193.436278  -7103.277126   -397.663691
PJ02 -30890.281221  22627.669329  22656.374171     -0.917481
PJ03 -29476.538864  26825.311262  18894.520568      0.264331
PJ04 -25629.735969  21272.183358 -20763.281304     94.259285
PR01  19329.826440  16492.697169  -2302.319166     23.120028
PR02  19118.967918   6457.788674  15605.818774    -23.275877
PR03   8027.897068  -7501.659838  23066.850583     72.567964
PR04  -7283.218667 -16838.969603  17760.710417    175.973490
PR05 -18597.746225 -17262.611303   2756.958610    107.822426
PR07  -7421.784144   7968.751287 -23024.940783     50.009330
PR08   7498.729016  16892.641621 -17503.390407    -69.495281
PR09 -23683.046357   5568.765069  -7527.942938    104.369178
PR11  -5664.131340  13032.227686  21185.213791     -5.390256
PR12  13727.217703   5431.527726  20813.818961     25.026871
PR13  23350.254871  -4476.242208   9211.214900    -32.093855
PR14  19820.560049 -12778.678146  -9734.902915     24.323428
PR15   4599.284001 -12843.596323 -21541.244718     91.018616
PR16 -13406.926118  -5383.955196 -21012.680248     11.322999
PR17   9423.972140 -19729.989636 -13099.534962    605.293087
PR18   3083.992269 -25150.077682   3213.926365     67.042823
PR19  -3774.858070 -18671.582133  16969.408774   -222.090959
PR20 -10819.684417   1765.990221  23038.528023    -87.807231
PR21  -9043.310168  20815.773040  11666.565015   -373.725074
PR22  -3533.440827  24934.116516  -3969.896478     71.176015
PR24  11292.744350  -2783.856976 -22681.448203    147.172283
PR25 -10612.932629  19025.483106  13288.939091     55.208746
EOF
